[{"OBJECT_NAME":"STARLINK-6308","OBJECT_ID":"2023-065AH","EPOCH":"2026-03-09T22:00:01.999584","MEAN_MOTION":15.14468272,"ECCENTRICITY":0.00015369,"INCLINATION":42.9995,"RA_OF_ASC_NODE":195.9313,"ARG_OF_PERICENTER":265.5334,"MEAN_ANOMALY":352.8543,"EPHEMERIS_TYPE":0,"CLASSIFICATION_TYPE":"U","NORAD_CAT_ID":56534,"ELEMENT_SET_NO":999,"REV_AT_EPOCH":563,"BSTAR":0.0040146365,"MEAN_MOTION_DOT":0.0007575,"MEAN_MOTION_DDOT":0},{"OBJECT_NAME":"LEGION 3","OBJECT_ID":"2024-146A","EPOCH":"2026-03-09T21:00:06.623424","MEAN_MOTION":15.16154835,"ECCENTRICITY":0.00135587,"INCLINATION":45.0003,"RA_OF_ASC_NODE":202.9187,"ARG_OF_PERICENTER":321.2712,"MEAN_ANOMALY":38.7194,"EPHEMERIS_TYPE":0,"CLASSIFICATION_TYPE":"U","NORAD_CAT_ID":60452,"ELEMENT_SET_NO":999,"REV_AT_EPOCH":8695,"BSTAR":0.00032920336,"MEAN_MOTION_DOT":6.211e-5,"MEAN_MOTION_DDOT":0}]
